{
  "type": "FeatureCollection",
  "features": [
    {
      "type": "Feature",
      "properties": {
        "norad_id": 41866,
        "name": "GOES 16",
        "group": "weather",
        "lat": -0.04959625473176221,
        "lon": -31.39048100066228,
        "alt_km": 35780.693128117215,
        "timestamp": "2025-12-10T23:33:12.473198+00:00",
        "meta_object_name": "GOES 16",
        "meta_object_id": "2016-071A",
        "meta_epoch": "2025-12-10T13:10:22.908000",
        "meta_mean_motion": 1.00271269,
        "meta_eccentricity": 0.0003343,
        "meta_inclination": 0.0651,
        "meta_ra_of_asc_node": 104.2615,
        "meta_arg_of_pericenter": 157.4059,
        "meta_mean_anomaly": 270.7781,
        "meta_ephemeris_type": 0,
        "meta_classification_type": "U",
        "meta_norad_cat_id": 41866,
        "meta_element_set_no": 999,
        "meta_rev_at_epoch": 3321,
        "meta_bstar": 0,
        "meta_mean_motion_dot": -8.7e-07,
        "meta_mean_motion_ddot": 0,
        "tle_line1": "1 41866U 16071A   25344.54887625 -.00000087  00000+0  00000+0 0  9997",
        "tle_line2": "2 41866   0.0651 104.2615 0003343 157.4059 270.7781  1.00271269 33211"
      },
      "geometry": {
        "type": "Point",
        "coordinates": [
          -31.39048100066228,
          -0.04959625473176221
        ]
      }
    },
    {
      "type": "Feature",
      "properties": {
        "norad_id": 41882,
        "name": "FENGYUN 4A",
        "group": "weather",
        "lat": 1.6659521653698561,
        "lon": -162.90164786960813,
        "alt_km": 35766.944529515116,
        "timestamp": "2025-12-10T23:33:12.473209+00:00",
        "meta_object_name": "FENGYUN 4A",
        "meta_object_id": "2016-077A",
        "meta_epoch": "2025-12-09T21:00:35.659872",
        "meta_mean_motion": 1.00275053,
        "meta_eccentricity": 0.00048891,
        "meta_inclination": 1.8422,
        "meta_ra_of_asc_node": 82.422,
        "meta_arg_of_pericenter": 142.7758,
        "meta_mean_anomaly": 292.6612,
        "meta_ephemeris_type": 0,
        "meta_classification_type": "U",
        "meta_norad_cat_id": 41882,
        "meta_element_set_no": 999,
        "meta_rev_at_epoch": 3303,
        "meta_bstar": 0,
        "meta_mean_motion_dot": -3.54e-06,
        "meta_mean_motion_ddot": 0,
        "tle_line1": "1 41882U 16077A   25343.87541273 -.00000354  00000+0  00000+0 0  9999",
        "tle_line2": "2 41882   1.8422  82.4220 0004889 142.7758 292.6612  1.00275053 33033"
      },
      "geometry": {
        "type": "Point",
        "coordinates": [
          -162.90164786960813,
          1.6659521653698561
        ]
      }
    },
    {
      "type": "Feature",
      "properties": {
        "norad_id": 41884,
        "name": "CYGFM05",
        "group": "weather",
        "lat": -34.93979623544417,
        "lon": -31.881199076801444,
        "alt_km": 427.47330911288645,
        "timestamp": "2025-12-10T23:33:12.473220+00:00",
        "meta_object_name": "CYGFM05",
        "meta_object_id": "2016-078A",
        "meta_epoch": "2025-12-10T14:39:13.190112",
        "meta_mean_motion": 15.47511355,
        "meta_eccentricity": 0.00098309,
        "meta_inclination": 34.96,
        "meta_ra_of_asc_node": 61.038,
        "meta_arg_of_pericenter": 163.8231,
        "meta_mean_anomaly": 196.2806,
        "meta_ephemeris_type": 0,
        "meta_classification_type": "U",
        "meta_norad_cat_id": 41884,
        "meta_element_set_no": 999,
        "meta_rev_at_epoch": 49943,
        "meta_bstar": 0.00053013825,
        "meta_mean_motion_dot": 0.00028182,
        "meta_mean_motion_ddot": 0,
        "tle_line1": "1 41884U 16078A   25344.61056933  .00028182  00000+0  53014-3 0  9994",
        "tle_line2": "2 41884  34.9600  61.0380 0009830 163.8231 196.2806 15.47511355499439"
      },
      "geometry": {
        "type": "Point",
        "coordinates": [
          -31.881199076801444,
          -34.93979623544417
        ]
      }
    },
    {
      "type": "Feature",
      "properties": {
        "norad_id": 41885,
        "name": "CYGFM04",
        "group": "weather",
        "lat": 25.374723996296737,
        "lon": 170.6412141934455,
        "alt_km": 408.3418030291359,
        "timestamp": "2025-12-10T23:33:12.473229+00:00",
        "meta_object_name": "CYGFM04",
        "meta_object_id": "2016-078B",
        "meta_epoch": "2025-12-10T12:10:11.957376",
        "meta_mean_motion": 15.50209953,
        "meta_eccentricity": 0.00091826,
        "meta_inclination": 34.9355,
        "meta_ra_of_asc_node": 36.555,
        "meta_arg_of_pericenter": 190.5613,
        "meta_mean_anomaly": 169.4917,
        "meta_ephemeris_type": 0,
        "meta_classification_type": "U",
        "meta_norad_cat_id": 41885,
        "meta_element_set_no": 999,
        "meta_rev_at_epoch": 49959,
        "meta_bstar": 0.0005223923,
        "meta_mean_motion_dot": 0.00030547,
        "meta_mean_motion_ddot": 0,
        "tle_line1": "1 41885U 16078B   25344.50708284  .00030547  00000+0  52239-3 0  9992",
        "tle_line2": "2 41885  34.9355  36.5550 0009182 190.5613 169.4917 15.50209953499598"
      },
      "geometry": {
        "type": "Point",
        "coordinates": [
          170.6412141934455,
          25.374723996296737
        ]
      }
    },
    {
      "type": "Feature",
      "properties": {
        "norad_id": 41886,
        "name": "CYGFM02",
        "group": "weather",
        "lat": 23.518592482162806,
        "lon": 173.23811495281493,
        "alt_km": 403.6008451175685,
        "timestamp": "2025-12-10T23:33:12.473238+00:00",
        "meta_object_name": "CYGFM02",
        "meta_object_id": "2016-078C",
        "meta_epoch": "2025-12-10T13:42:20.892096",
        "meta_mean_motion": 15.51583416,
        "meta_eccentricity": 0.00108733,
        "meta_inclination": 34.9444,
        "meta_ra_of_asc_node": 34.4894,
        "meta_arg_of_pericenter": 190.7909,
        "meta_mean_anomaly": 169.2582,
        "meta_ephemeris_type": 0,
        "meta_classification_type": "U",
        "meta_norad_cat_id": 41886,
        "meta_element_set_no": 999,
        "meta_rev_at_epoch": 49973,
        "meta_bstar": 0.00053912782,
        "meta_mean_motion_dot": 0.00033149,
        "meta_mean_motion_ddot": 0,
        "tle_line1": "1 41886U 16078C   25344.57107514  .00033149  00000+0  53913-3 0  9990",
        "tle_line2": "2 41886  34.9444  34.4894 0010873 190.7909 169.2582 15.51583416499737"
      },
      "geometry": {
        "type": "Point",
        "coordinates": [
          173.23811495281493,
          23.518592482162806
        ]
      }
    },
    {
      "type": "Feature",
      "properties": {
        "norad_id": 41887,
        "name": "CYGFM01",
        "group": "weather",
        "lat": -26.00419081289236,
        "lon": 16.65890802681963,
        "alt_km": 429.37078735689283,
        "timestamp": "2025-12-10T23:33:12.473247+00:00",
        "meta_object_name": "CYGFM01",
        "meta_object_id": "2016-078D",
        "meta_epoch": "2025-12-10T14:28:58.046304",
        "meta_mean_motion": 15.4808627,
        "meta_eccentricity": 0.00093656,
        "meta_inclination": 34.9431,
        "meta_ra_of_asc_node": 63.4492,
        "meta_arg_of_pericenter": 155.4289,
        "meta_mean_anomaly": 204.688,
        "meta_ephemeris_type": 0,
        "meta_classification_type": "U",
        "meta_norad_cat_id": 41887,
        "meta_element_set_no": 999,
        "meta_rev_at_epoch": 49937,
        "meta_bstar": 0.0005374787,
        "meta_mean_motion_dot": 0.00029154,
        "meta_mean_motion_ddot": 0,
        "tle_line1": "1 41887U 16078D   25344.60344961  .00029154  00000+0  53748-3 0  9991",
        "tle_line2": "2 41887  34.9431  63.4492 0009365 155.4289 204.6880 15.48086270499370"
      },
      "geometry": {
        "type": "Point",
        "coordinates": [
          16.65890802681963,
          -26.00419081289236
        ]
      }
    },
    {
      "type": "Feature",
      "properties": {
        "norad_id": 41888,
        "name": "CYGFM08",
        "group": "weather",
        "lat": -5.289484527314482,
        "lon": 36.372283629108004,
        "alt_km": 425.772369169963,
        "timestamp": "2025-12-10T23:33:12.473257+00:00",
        "meta_object_name": "CYGFM08",
        "meta_object_id": "2016-078E",
        "meta_epoch": "2025-12-10T14:18:52.295040",
        "meta_mean_motion": 15.49284853,
        "meta_eccentricity": 0.00112683,
        "meta_inclination": 34.9464,
        "meta_ra_of_asc_node": 46.5122,
        "meta_arg_of_pericenter": 179.4899,
        "meta_mean_anomaly": 180.5835,
        "meta_ephemeris_type": 0,
        "meta_classification_type": "U",
        "meta_norad_cat_id": 41888,
        "meta_element_set_no": 999,
        "meta_rev_at_epoch": 49960,
        "meta_bstar": 0.00053507096,
        "meta_mean_motion_dot": 0.00030303,
        "meta_mean_motion_ddot": 0,
        "tle_line1": "1 41888U 16078E   25344.59643860  .00030303  00000+0  53507-3 0  9991",
        "tle_line2": "2 41888  34.9464  46.5122 0011268 179.4899 180.5835 15.49284853499603"
      },
      "geometry": {
        "type": "Point",
        "coordinates": [
          36.372283629108004,
          -5.289484527314482
        ]
      }
    }
  ]
}